STARLINK-31809          
1 59743U 24090P   26068.31460966 -.00000889  00000+0 -22778-4 0  9996
2 59743  43.0002 178.6175 0001079 298.3904  61.6839 15.27574983103464
HERMES-2                
1 63243U 25052AK  26068.92847372  .00009456  00000+0  34839-3 0  9999
2 63243  97.4004 324.4926 0006340  99.4160 260.7796 15.28021069 54859
